{
  "type": "FeatureCollection",
  "features": [
    {
      "type": "Feature",
      "geometry": {
        "type": "LineString",
        "coordinates": [
          [
            66.7170607,
            44.1680405,
            0
          ],
          [
            66.717081,
            44.168059,
            0
          ],
          [
            66.717227,
            44.168302,
            0
          ],
          [
            66.71737,
            44.168543,
            0
          ],
          [
            66.717444,
            44.168658,
            0
          ]
        ]
      },
      "properties": {
        "name": "от КТПН до оп. №4",
        "styleUrl": "#line-0288D1-1200-nodesc"
      }
    },
    {
      "type": "Feature",
      "geometry": {
        "type": "LineString",
        "coordinates": [
          [
            66.717444,
            44.168658,
            0
          ],
          [
            66.7177,
            44.168589,
            0
          ],
          [
            66.717954,
            44.168519,
            0
          ],
          [
            66.718292,
            44.168439,
            0
          ],
          [
            66.718576,
            44.168362,
            0
          ],
          [
            66.718872,
            44.16828,
            0
          ],
          [
            66.719181,
            44.168182,
            0
          ],
          [
            66.719397,
            44.16812,
            0
          ]
        ]
      },
      "properties": {
        "name": "от оп. №4 до оп. №4А7",
        "styleUrl": "#line-0288D1-1200-nodesc"
      }
    },
    {
      "type": "Feature",
      "geometry": {
        "type": "LineString",
        "coordinates": [
          [
            66.717954,
            44.168519,
            0
          ],
          [
            66.718057,
            44.168393,
            0
          ],
          [
            66.718307,
            44.168321,
            0
          ],
          [
            66.718576,
            44.168243,
            0
          ],
          [
            66.718892,
            44.168165,
            0
          ],
          [
            66.71919,
            44.168075,
            0
          ],
          [
            66.719482,
            44.168,
            0
          ],
          [
            66.719871,
            44.167893,
            0
          ]
        ]
      },
      "properties": {
        "name": "от оп. №4А2 до оп. №4А2-7",
        "styleUrl": "#line-0288D1-1200-nodesc"
      }
    },
    {
      "type": "Feature",
      "geometry": {
        "type": "LineString",
        "coordinates": [
          [
            66.717444,
            44.168658,
            0
          ],
          [
            66.717213,
            44.168711,
            0
          ],
          [
            66.716949,
            44.168776,
            0
          ],
          [
            66.716693,
            44.168834,
            0
          ],
          [
            66.716437,
            44.168903,
            0
          ],
          [
            66.716195,
            44.168969,
            0
          ],
          [
            66.715934,
            44.169032,
            0
          ],
          [
            66.715643,
            44.169107,
            0
          ],
          [
            66.715378,
            44.169181,
            0
          ],
          [
            66.71509,
            44.16926,
            0
          ],
          [
            66.71482,
            44.169324,
            0
          ],
          [
            66.714282,
            44.169463,
            0
          ],
          [
            66.713944,
            44.169557,
            0
          ],
          [
            66.713709,
            44.169623,
            0
          ],
          [
            66.713401,
            44.169706,
            0
          ],
          [
            66.713076,
            44.169792,
            0
          ],
          [
            66.712685,
            44.169893,
            0
          ],
          [
            66.712395,
            44.169975,
            0
          ],
          [
            66.712495,
            44.170188,
            0
          ],
          [
            66.712588,
            44.170366,
            0
          ],
          [
            66.712696,
            44.170577,
            0
          ],
          [
            66.712967,
            44.170508,
            0
          ],
          [
            66.713265,
            44.170439,
            0
          ],
          [
            66.713556,
            44.170352,
            0
          ],
          [
            66.713842,
            44.170278,
            0
          ],
          [
            66.714137,
            44.170202,
            0
          ],
          [
            66.71441,
            44.170127,
            0
          ],
          [
            66.714714,
            44.170052,
            0
          ],
          [
            66.715016,
            44.169968,
            0
          ],
          [
            66.71532,
            44.169903,
            0
          ],
          [
            66.715586,
            44.169832,
            0
          ],
          [
            66.715907,
            44.169732,
            0
          ],
          [
            66.716186,
            44.169661,
            0
          ],
          [
            66.716504,
            44.169574,
            0
          ],
          [
            66.716741,
            44.169518,
            0
          ],
          [
            66.717005,
            44.169448,
            0
          ],
          [
            66.717294,
            44.169374,
            0
          ],
          [
            66.717606,
            44.169291,
            0
          ],
          [
            66.717895,
            44.169214,
            0
          ],
          [
            66.71817,
            44.169151,
            0
          ],
          [
            66.71844,
            44.169084,
            0
          ],
          [
            66.718733,
            44.169002,
            0
          ],
          [
            66.719,
            44.168941,
            0
          ]
        ]
      },
      "properties": {
        "name": "от оп. №4 до оп. №4В42",
        "styleUrl": "#line-0288D1-1200-nodesc"
      }
    },
    {
      "type": "Feature",
      "geometry": {
        "type": "Point",
        "coordinates": [
          66.717081,
          44.168059,
          0
        ]
      },
      "properties": {
        "name": "Опора №1 ж/б пром.",
        "description": "no description",
        "styleUrl": "#icon-1899-0288D1",
        "label-scale": 0,
        "icon-scale": 1,
        "icon-offset": [
          32,
          64
        ],
        "icon-offset-units": [
          "pixels",
          "insetPixels"
        ],
        "icon": "images/icon-1.png"
      }
    },
    {
      "type": "Feature",
      "geometry": {
        "type": "Point",
        "coordinates": [
          66.717227,
          44.168302,
          0
        ]
      },
      "properties": {
        "name": "Опора №2 д/п пром.",
        "description": "no description",
        "styleUrl": "#icon-1899-0288D1",
        "label-scale": 0,
        "icon-scale": 1,
        "icon-offset": [
          32,
          64
        ],
        "icon-offset-units": [
          "pixels",
          "insetPixels"
        ],
        "icon": "images/icon-1.png"
      }
    },
    {
      "type": "Feature",
      "geometry": {
        "type": "Point",
        "coordinates": [
          66.71737,
          44.168543,
          0
        ]
      },
      "properties": {
        "name": "Опора №3 д/п пром.",
        "description": "no description",
        "styleUrl": "#icon-1899-0288D1",
        "label-scale": 0,
        "icon-scale": 1,
        "icon-offset": [
          32,
          64
        ],
        "icon-offset-units": [
          "pixels",
          "insetPixels"
        ],
        "icon": "images/icon-1.png"
      }
    },
    {
      "type": "Feature",
      "geometry": {
        "type": "Point",
        "coordinates": [
          66.717444,
          44.168658,
          0
        ]
      },
      "properties": {
        "name": "Опора №4 ж/б пром.",
        "description": "no description",
        "styleUrl": "#icon-1899-0288D1",
        "label-scale": 0,
        "icon-scale": 1,
        "icon-offset": [
          32,
          64
        ],
        "icon-offset-units": [
          "pixels",
          "insetPixels"
        ],
        "icon": "images/icon-1.png"
      }
    },
    {
      "type": "Feature",
      "geometry": {
        "type": "Point",
        "coordinates": [
          66.7177,
          44.168589,
          0
        ]
      },
      "properties": {
        "name": "Опора №4А1 ж/б пром. 1-ввод",
        "description": "no description",
        "styleUrl": "#icon-1899-0288D1",
        "label-scale": 0,
        "icon-scale": 1,
        "icon-offset": [
          32,
          64
        ],
        "icon-offset-units": [
          "pixels",
          "insetPixels"
        ],
        "icon": "images/icon-1.png"
      }
    },
    {
      "type": "Feature",
      "geometry": {
        "type": "Point",
        "coordinates": [
          66.717954,
          44.168519,
          0
        ]
      },
      "properties": {
        "name": "Опора №4А2 ж/б анкер. 1-ввод",
        "description": "no description",
        "styleUrl": "#icon-1899-0288D1",
        "label-scale": 0,
        "icon-scale": 1,
        "icon-offset": [
          32,
          64
        ],
        "icon-offset-units": [
          "pixels",
          "insetPixels"
        ],
        "icon": "images/icon-1.png"
      }
    },
    {
      "type": "Feature",
      "geometry": {
        "type": "Point",
        "coordinates": [
          66.718292,
          44.168439,
          0
        ]
      },
      "properties": {
        "name": "Опора №4А3 ж/б пром. 2-ввод",
        "description": "no description",
        "styleUrl": "#icon-1899-0288D1",
        "label-scale": 0,
        "icon-scale": 1,
        "icon-offset": [
          32,
          64
        ],
        "icon-offset-units": [
          "pixels",
          "insetPixels"
        ],
        "icon": "images/icon-1.png"
      }
    },
    {
      "type": "Feature",
      "geometry": {
        "type": "Point",
        "coordinates": [
          66.718057,
          44.168393,
          0
        ]
      },
      "properties": {
        "name": "Опора №4А2-1 ж/б анкер. 1-ввод",
        "description": "no description",
        "styleUrl": "#icon-1899-0288D1",
        "label-scale": 0,
        "icon-scale": 1,
        "icon-offset": [
          32,
          64
        ],
        "icon-offset-units": [
          "pixels",
          "insetPixels"
        ],
        "icon": "images/icon-1.png"
      }
    },
    {
      "type": "Feature",
      "geometry": {
        "type": "Point",
        "coordinates": [
          66.718307,
          44.168321,
          0
        ]
      },
      "properties": {
        "name": "Опора №4А2-2 ж/б пром. 1-ввод",
        "description": "no description",
        "styleUrl": "#icon-1899-0288D1",
        "label-scale": 0,
        "icon-scale": 1,
        "icon-offset": [
          32,
          64
        ],
        "icon-offset-units": [
          "pixels",
          "insetPixels"
        ],
        "icon": "images/icon-1.png"
      }
    },
    {
      "type": "Feature",
      "geometry": {
        "type": "Point",
        "coordinates": [
          66.718576,
          44.168243,
          0
        ]
      },
      "properties": {
        "name": "Опора №4А2-3 ж/б пром.",
        "description": "no description",
        "styleUrl": "#icon-1899-0288D1",
        "label-scale": 0,
        "icon-scale": 1,
        "icon-offset": [
          32,
          64
        ],
        "icon-offset-units": [
          "pixels",
          "insetPixels"
        ],
        "icon": "images/icon-1.png"
      }
    },
    {
      "type": "Feature",
      "geometry": {
        "type": "Point",
        "coordinates": [
          66.718576,
          44.168362,
          0
        ]
      },
      "properties": {
        "name": "Опора №4А4 ж/б пром. 1-ввод",
        "description": "no description",
        "styleUrl": "#icon-1899-0288D1",
        "label-scale": 0,
        "icon-scale": 1,
        "icon-offset": [
          32,
          64
        ],
        "icon-offset-units": [
          "pixels",
          "insetPixels"
        ],
        "icon": "images/icon-1.png"
      }
    },
    {
      "type": "Feature",
      "geometry": {
        "type": "Point",
        "coordinates": [
          66.718892,
          44.168165,
          0
        ]
      },
      "properties": {
        "name": "Опора №4А2-4 ж/б пром. 1-ввод",
        "description": "no description",
        "styleUrl": "#icon-1899-0288D1",
        "label-scale": 0,
        "icon-scale": 1,
        "icon-offset": [
          32,
          64
        ],
        "icon-offset-units": [
          "pixels",
          "insetPixels"
        ],
        "icon": "images/icon-1.png"
      }
    },
    {
      "type": "Feature",
      "geometry": {
        "type": "Point",
        "coordinates": [
          66.718872,
          44.16828,
          0
        ]
      },
      "properties": {
        "name": "Опора №4А5 ж/б пром.",
        "description": "no description",
        "styleUrl": "#icon-1899-0288D1",
        "label-scale": 0,
        "icon-scale": 1,
        "icon-offset": [
          32,
          64
        ],
        "icon-offset-units": [
          "pixels",
          "insetPixels"
        ],
        "icon": "images/icon-1.png"
      }
    },
    {
      "type": "Feature",
      "geometry": {
        "type": "Point",
        "coordinates": [
          66.719181,
          44.168182,
          0
        ]
      },
      "properties": {
        "name": "Опора №4А6 ж/б пром. 1-ввод",
        "description": "no description",
        "styleUrl": "#icon-1899-0288D1",
        "label-scale": 0,
        "icon-scale": 1,
        "icon-offset": [
          32,
          64
        ],
        "icon-offset-units": [
          "pixels",
          "insetPixels"
        ],
        "icon": "images/icon-1.png"
      }
    },
    {
      "type": "Feature",
      "geometry": {
        "type": "Point",
        "coordinates": [
          66.71919,
          44.168075,
          0
        ]
      },
      "properties": {
        "name": "Опора №4А2-5 ж/б пром. 1-ввод",
        "description": "no description",
        "styleUrl": "#icon-1899-0288D1",
        "label-scale": 0,
        "icon-scale": 1,
        "icon-offset": [
          32,
          64
        ],
        "icon-offset-units": [
          "pixels",
          "insetPixels"
        ],
        "icon": "images/icon-1.png"
      }
    },
    {
      "type": "Feature",
      "geometry": {
        "type": "Point",
        "coordinates": [
          66.719397,
          44.16812,
          0
        ]
      },
      "properties": {
        "name": "Опора №4А7 ж/б анкер. 1-ввод",
        "description": "no description",
        "styleUrl": "#icon-1899-0288D1",
        "label-scale": 0,
        "icon-scale": 1,
        "icon-offset": [
          32,
          64
        ],
        "icon-offset-units": [
          "pixels",
          "insetPixels"
        ],
        "icon": "images/icon-1.png"
      }
    },
    {
      "type": "Feature",
      "geometry": {
        "type": "Point",
        "coordinates": [
          66.719482,
          44.168,
          0
        ]
      },
      "properties": {
        "name": "Опора №4А2-6 ж/б пром. 1-ввод",
        "description": "no description",
        "styleUrl": "#icon-1899-0288D1",
        "label-scale": 0,
        "icon-scale": 1,
        "icon-offset": [
          32,
          64
        ],
        "icon-offset-units": [
          "pixels",
          "insetPixels"
        ],
        "icon": "images/icon-1.png"
      }
    },
    {
      "type": "Feature",
      "geometry": {
        "type": "Point",
        "coordinates": [
          66.719871,
          44.167893,
          0
        ]
      },
      "properties": {
        "name": "Опора №4А2-7 ж/б анкер. 1-ввод",
        "description": "no description",
        "styleUrl": "#icon-1899-0288D1",
        "label-scale": 0,
        "icon-scale": 1,
        "icon-offset": [
          32,
          64
        ],
        "icon-offset-units": [
          "pixels",
          "insetPixels"
        ],
        "icon": "images/icon-1.png"
      }
    },
    {
      "type": "Feature",
      "geometry": {
        "type": "Point",
        "coordinates": [
          66.717213,
          44.168711,
          0
        ]
      },
      "properties": {
        "name": "Опора №4В1 ж/б пром.",
        "description": "no description",
        "styleUrl": "#icon-1899-0288D1",
        "label-scale": 0,
        "icon-scale": 1,
        "icon-offset": [
          32,
          64
        ],
        "icon-offset-units": [
          "pixels",
          "insetPixels"
        ],
        "icon": "images/icon-1.png"
      }
    },
    {
      "type": "Feature",
      "geometry": {
        "type": "Point",
        "coordinates": [
          66.716949,
          44.168776,
          0
        ]
      },
      "properties": {
        "name": "Опора №4В2 ж/б пром.",
        "description": "no description",
        "styleUrl": "#icon-1899-0288D1",
        "label-scale": 0,
        "icon-scale": 1,
        "icon-offset": [
          32,
          64
        ],
        "icon-offset-units": [
          "pixels",
          "insetPixels"
        ],
        "icon": "images/icon-1.png"
      }
    },
    {
      "type": "Feature",
      "geometry": {
        "type": "Point",
        "coordinates": [
          66.716693,
          44.168834,
          0
        ]
      },
      "properties": {
        "name": "Опора №4В3 ж/б пром.",
        "description": "no description",
        "styleUrl": "#icon-1899-0288D1",
        "label-scale": 0,
        "icon-scale": 1,
        "icon-offset": [
          32,
          64
        ],
        "icon-offset-units": [
          "pixels",
          "insetPixels"
        ],
        "icon": "images/icon-1.png"
      }
    },
    {
      "type": "Feature",
      "geometry": {
        "type": "Point",
        "coordinates": [
          66.716437,
          44.168903,
          0
        ]
      },
      "properties": {
        "name": "Опора №4В4 ж/б пром.",
        "description": "no description",
        "styleUrl": "#icon-1899-0288D1",
        "label-scale": 0,
        "icon-scale": 1,
        "icon-offset": [
          32,
          64
        ],
        "icon-offset-units": [
          "pixels",
          "insetPixels"
        ],
        "icon": "images/icon-1.png"
      }
    },
    {
      "type": "Feature",
      "geometry": {
        "type": "Point",
        "coordinates": [
          66.716195,
          44.168969,
          0
        ]
      },
      "properties": {
        "name": "Опора №4В5 ж/б пром.",
        "description": "no description",
        "styleUrl": "#icon-1899-0288D1",
        "label-scale": 0,
        "icon-scale": 1,
        "icon-offset": [
          32,
          64
        ],
        "icon-offset-units": [
          "pixels",
          "insetPixels"
        ],
        "icon": "images/icon-1.png"
      }
    },
    {
      "type": "Feature",
      "geometry": {
        "type": "Point",
        "coordinates": [
          66.715934,
          44.169032,
          0
        ]
      },
      "properties": {
        "name": "Опора №4В6 ж/б пром.",
        "description": "no description",
        "styleUrl": "#icon-1899-0288D1",
        "label-scale": 0,
        "icon-scale": 1,
        "icon-offset": [
          32,
          64
        ],
        "icon-offset-units": [
          "pixels",
          "insetPixels"
        ],
        "icon": "images/icon-1.png"
      }
    },
    {
      "type": "Feature",
      "geometry": {
        "type": "Point",
        "coordinates": [
          66.715643,
          44.169107,
          0
        ]
      },
      "properties": {
        "name": "Опора №4В7 ж/б пром.",
        "description": "no description",
        "styleUrl": "#icon-1899-0288D1",
        "label-scale": 0,
        "icon-scale": 1,
        "icon-offset": [
          32,
          64
        ],
        "icon-offset-units": [
          "pixels",
          "insetPixels"
        ],
        "icon": "images/icon-1.png"
      }
    },
    {
      "type": "Feature",
      "geometry": {
        "type": "Point",
        "coordinates": [
          66.715378,
          44.169181,
          0
        ]
      },
      "properties": {
        "name": "Опора №4В8 ж/б пром.",
        "description": "no description",
        "styleUrl": "#icon-1899-0288D1",
        "label-scale": 0,
        "icon-scale": 1,
        "icon-offset": [
          32,
          64
        ],
        "icon-offset-units": [
          "pixels",
          "insetPixels"
        ],
        "icon": "images/icon-1.png"
      }
    },
    {
      "type": "Feature",
      "geometry": {
        "type": "Point",
        "coordinates": [
          66.71509,
          44.16926,
          0
        ]
      },
      "properties": {
        "name": "Опора №4В9 ж/б пром.",
        "description": "no description",
        "styleUrl": "#icon-1899-0288D1",
        "label-scale": 0,
        "icon-scale": 1,
        "icon-offset": [
          32,
          64
        ],
        "icon-offset-units": [
          "pixels",
          "insetPixels"
        ],
        "icon": "images/icon-1.png"
      }
    },
    {
      "type": "Feature",
      "geometry": {
        "type": "Point",
        "coordinates": [
          66.71482,
          44.169324,
          0
        ]
      },
      "properties": {
        "name": "Опора №4В10 ж/б анкер.",
        "description": "no description",
        "styleUrl": "#icon-1899-0288D1",
        "label-scale": 0,
        "icon-scale": 1,
        "icon-offset": [
          32,
          64
        ],
        "icon-offset-units": [
          "pixels",
          "insetPixels"
        ],
        "icon": "images/icon-1.png"
      }
    },
    {
      "type": "Feature",
      "geometry": {
        "type": "Point",
        "coordinates": [
          66.714282,
          44.169463,
          0
        ]
      },
      "properties": {
        "name": "Опора №4В11 ж/б пром.",
        "description": "no description",
        "styleUrl": "#icon-1899-0288D1",
        "label-scale": 0,
        "icon-scale": 1,
        "icon-offset": [
          32,
          64
        ],
        "icon-offset-units": [
          "pixels",
          "insetPixels"
        ],
        "icon": "images/icon-1.png"
      }
    },
    {
      "type": "Feature",
      "geometry": {
        "type": "Point",
        "coordinates": [
          66.713944,
          44.169557,
          0
        ]
      },
      "properties": {
        "name": "Опора №4В12 ж/б пром.",
        "description": "no description",
        "styleUrl": "#icon-1899-0288D1",
        "label-scale": 0,
        "icon-scale": 1,
        "icon-offset": [
          32,
          64
        ],
        "icon-offset-units": [
          "pixels",
          "insetPixels"
        ],
        "icon": "images/icon-1.png"
      }
    },
    {
      "type": "Feature",
      "geometry": {
        "type": "Point",
        "coordinates": [
          66.713709,
          44.169623,
          0
        ]
      },
      "properties": {
        "name": "Опора №4В13 ж/б пром.",
        "description": "no description",
        "styleUrl": "#icon-1899-0288D1",
        "label-scale": 0,
        "icon-scale": 1,
        "icon-offset": [
          32,
          64
        ],
        "icon-offset-units": [
          "pixels",
          "insetPixels"
        ],
        "icon": "images/icon-1.png"
      }
    },
    {
      "type": "Feature",
      "geometry": {
        "type": "Point",
        "coordinates": [
          66.713401,
          44.169706,
          0
        ]
      },
      "properties": {
        "name": "Опора №4В14 ж/б пром.",
        "description": "no description",
        "styleUrl": "#icon-1899-0288D1",
        "label-scale": 0,
        "icon-scale": 1,
        "icon-offset": [
          32,
          64
        ],
        "icon-offset-units": [
          "pixels",
          "insetPixels"
        ],
        "icon": "images/icon-1.png"
      }
    },
    {
      "type": "Feature",
      "geometry": {
        "type": "Point",
        "coordinates": [
          66.713076,
          44.169792,
          0
        ]
      },
      "properties": {
        "name": "Опора №4В15 ж/б пром. ",
        "description": "no description",
        "styleUrl": "#icon-1899-0288D1",
        "label-scale": 0,
        "icon-scale": 1,
        "icon-offset": [
          32,
          64
        ],
        "icon-offset-units": [
          "pixels",
          "insetPixels"
        ],
        "icon": "images/icon-1.png"
      }
    },
    {
      "type": "Feature",
      "geometry": {
        "type": "Point",
        "coordinates": [
          66.712685,
          44.169893,
          0
        ]
      },
      "properties": {
        "name": "Опора №4В16 ж/б пром.",
        "description": "no description",
        "styleUrl": "#icon-1899-0288D1",
        "label-scale": 0,
        "icon-scale": 1,
        "icon-offset": [
          32,
          64
        ],
        "icon-offset-units": [
          "pixels",
          "insetPixels"
        ],
        "icon": "images/icon-1.png"
      }
    },
    {
      "type": "Feature",
      "geometry": {
        "type": "Point",
        "coordinates": [
          66.712395,
          44.169975,
          0
        ]
      },
      "properties": {
        "name": "Опора №4В17 анкер",
        "description": "no description",
        "styleUrl": "#icon-1899-0288D1",
        "label-scale": 0,
        "icon-scale": 1,
        "icon-offset": [
          32,
          64
        ],
        "icon-offset-units": [
          "pixels",
          "insetPixels"
        ],
        "icon": "images/icon-1.png"
      }
    },
    {
      "type": "Feature",
      "geometry": {
        "type": "Point",
        "coordinates": [
          66.712495,
          44.170188,
          0
        ]
      },
      "properties": {
        "name": "Опора №4В18 ж/б пром.",
        "description": "no description",
        "styleUrl": "#icon-1899-0288D1",
        "label-scale": 0,
        "icon-scale": 1,
        "icon-offset": [
          32,
          64
        ],
        "icon-offset-units": [
          "pixels",
          "insetPixels"
        ],
        "icon": "images/icon-1.png"
      }
    },
    {
      "type": "Feature",
      "geometry": {
        "type": "Point",
        "coordinates": [
          66.712588,
          44.170366,
          0
        ]
      },
      "properties": {
        "name": "Опора №4В19 ж/б пром.",
        "description": "no description",
        "styleUrl": "#icon-1899-0288D1",
        "label-scale": 0,
        "icon-scale": 1,
        "icon-offset": [
          32,
          64
        ],
        "icon-offset-units": [
          "pixels",
          "insetPixels"
        ],
        "icon": "images/icon-1.png"
      }
    },
    {
      "type": "Feature",
      "geometry": {
        "type": "Point",
        "coordinates": [
          66.712696,
          44.170577,
          0
        ]
      },
      "properties": {
        "name": "Опора №4В20 анкер",
        "description": "no description",
        "styleUrl": "#icon-1899-0288D1",
        "label-scale": 0,
        "icon-scale": 1,
        "icon-offset": [
          32,
          64
        ],
        "icon-offset-units": [
          "pixels",
          "insetPixels"
        ],
        "icon": "images/icon-1.png"
      }
    },
    {
      "type": "Feature",
      "geometry": {
        "type": "Point",
        "coordinates": [
          66.712967,
          44.170508,
          0
        ]
      },
      "properties": {
        "name": "Опора №4В21 ж/б пром.",
        "description": "no description",
        "styleUrl": "#icon-1899-0288D1",
        "label-scale": 0,
        "icon-scale": 1,
        "icon-offset": [
          32,
          64
        ],
        "icon-offset-units": [
          "pixels",
          "insetPixels"
        ],
        "icon": "images/icon-1.png"
      }
    },
    {
      "type": "Feature",
      "geometry": {
        "type": "Point",
        "coordinates": [
          66.713265,
          44.170439,
          0
        ]
      },
      "properties": {
        "name": "Опора №4В22 ж/б пром.",
        "description": "no description",
        "styleUrl": "#icon-1899-0288D1",
        "label-scale": 0,
        "icon-scale": 1,
        "icon-offset": [
          32,
          64
        ],
        "icon-offset-units": [
          "pixels",
          "insetPixels"
        ],
        "icon": "images/icon-1.png"
      }
    },
    {
      "type": "Feature",
      "geometry": {
        "type": "Point",
        "coordinates": [
          66.713556,
          44.170352,
          0
        ]
      },
      "properties": {
        "name": "Опора №4В23 ж/б пром.",
        "description": "no description",
        "styleUrl": "#icon-1899-0288D1",
        "label-scale": 0,
        "icon-scale": 1,
        "icon-offset": [
          32,
          64
        ],
        "icon-offset-units": [
          "pixels",
          "insetPixels"
        ],
        "icon": "images/icon-1.png"
      }
    },
    {
      "type": "Feature",
      "geometry": {
        "type": "Point",
        "coordinates": [
          66.713842,
          44.170278,
          0
        ]
      },
      "properties": {
        "name": "Опора №4В24 ж/б пром.",
        "description": "no description",
        "styleUrl": "#icon-1899-0288D1",
        "label-scale": 0,
        "icon-scale": 1,
        "icon-offset": [
          32,
          64
        ],
        "icon-offset-units": [
          "pixels",
          "insetPixels"
        ],
        "icon": "images/icon-1.png"
      }
    },
    {
      "type": "Feature",
      "geometry": {
        "type": "Point",
        "coordinates": [
          66.714137,
          44.170202,
          0
        ]
      },
      "properties": {
        "name": "Опора №4В25 ж/б пром.",
        "description": "no description",
        "styleUrl": "#icon-1899-0288D1",
        "label-scale": 0,
        "icon-scale": 1,
        "icon-offset": [
          32,
          64
        ],
        "icon-offset-units": [
          "pixels",
          "insetPixels"
        ],
        "icon": "images/icon-1.png"
      }
    },
    {
      "type": "Feature",
      "geometry": {
        "type": "Point",
        "coordinates": [
          66.71441,
          44.170127,
          0
        ]
      },
      "properties": {
        "name": "Опора №4В26 ж/б пром.",
        "description": "no description",
        "styleUrl": "#icon-1899-0288D1",
        "label-scale": 0,
        "icon-scale": 1,
        "icon-offset": [
          32,
          64
        ],
        "icon-offset-units": [
          "pixels",
          "insetPixels"
        ],
        "icon": "images/icon-1.png"
      }
    },
    {
      "type": "Feature",
      "geometry": {
        "type": "Point",
        "coordinates": [
          66.714714,
          44.170052,
          0
        ]
      },
      "properties": {
        "name": "Опора №4В27 ж/б пром.",
        "description": "no description",
        "styleUrl": "#icon-1899-0288D1",
        "label-scale": 0,
        "icon-scale": 1,
        "icon-offset": [
          32,
          64
        ],
        "icon-offset-units": [
          "pixels",
          "insetPixels"
        ],
        "icon": "images/icon-1.png"
      }
    },
    {
      "type": "Feature",
      "geometry": {
        "type": "Point",
        "coordinates": [
          66.715016,
          44.169968,
          0
        ]
      },
      "properties": {
        "name": "Опора №4В28 ж/б анкер.",
        "description": "no description",
        "styleUrl": "#icon-1899-0288D1",
        "label-scale": 0,
        "icon-scale": 1,
        "icon-offset": [
          32,
          64
        ],
        "icon-offset-units": [
          "pixels",
          "insetPixels"
        ],
        "icon": "images/icon-1.png"
      }
    },
    {
      "type": "Feature",
      "geometry": {
        "type": "Point",
        "coordinates": [
          66.71532,
          44.169903,
          0
        ]
      },
      "properties": {
        "name": "Опора №4В29 ж/б пром.",
        "description": "no description",
        "styleUrl": "#icon-1899-0288D1",
        "label-scale": 0,
        "icon-scale": 1,
        "icon-offset": [
          32,
          64
        ],
        "icon-offset-units": [
          "pixels",
          "insetPixels"
        ],
        "icon": "images/icon-1.png"
      }
    },
    {
      "type": "Feature",
      "geometry": {
        "type": "Point",
        "coordinates": [
          66.715586,
          44.169832,
          0
        ]
      },
      "properties": {
        "name": "Опора №4В30 ж/б пром.",
        "description": "no description",
        "styleUrl": "#icon-1899-0288D1",
        "label-scale": 0,
        "icon-scale": 1,
        "icon-offset": [
          32,
          64
        ],
        "icon-offset-units": [
          "pixels",
          "insetPixels"
        ],
        "icon": "images/icon-1.png"
      }
    },
    {
      "type": "Feature",
      "geometry": {
        "type": "Point",
        "coordinates": [
          66.715907,
          44.169732,
          0
        ]
      },
      "properties": {
        "name": "Опора №4В31 ж/б пром.",
        "description": "no description",
        "styleUrl": "#icon-1899-0288D1",
        "label-scale": 0,
        "icon-scale": 1,
        "icon-offset": [
          32,
          64
        ],
        "icon-offset-units": [
          "pixels",
          "insetPixels"
        ],
        "icon": "images/icon-1.png"
      }
    },
    {
      "type": "Feature",
      "geometry": {
        "type": "Point",
        "coordinates": [
          66.716186,
          44.169661,
          0
        ]
      },
      "properties": {
        "name": "Опора №4В32 ж/б пром.",
        "description": "no description",
        "styleUrl": "#icon-1899-0288D1",
        "label-scale": 0,
        "icon-scale": 1,
        "icon-offset": [
          32,
          64
        ],
        "icon-offset-units": [
          "pixels",
          "insetPixels"
        ],
        "icon": "images/icon-1.png"
      }
    },
    {
      "type": "Feature",
      "geometry": {
        "type": "Point",
        "coordinates": [
          66.716504,
          44.169574,
          0
        ]
      },
      "properties": {
        "name": "Опора №4В33 ж/б пром.",
        "description": "no description",
        "styleUrl": "#icon-1899-0288D1",
        "label-scale": 0,
        "icon-scale": 1,
        "icon-offset": [
          32,
          64
        ],
        "icon-offset-units": [
          "pixels",
          "insetPixels"
        ],
        "icon": "images/icon-1.png"
      }
    },
    {
      "type": "Feature",
      "geometry": {
        "type": "Point",
        "coordinates": [
          66.716741,
          44.169518,
          0
        ]
      },
      "properties": {
        "name": "Опора №4В34 ж/б пром.",
        "description": "no description",
        "styleUrl": "#icon-1899-0288D1",
        "label-scale": 0,
        "icon-scale": 1,
        "icon-offset": [
          32,
          64
        ],
        "icon-offset-units": [
          "pixels",
          "insetPixels"
        ],
        "icon": "images/icon-1.png"
      }
    },
    {
      "type": "Feature",
      "geometry": {
        "type": "Point",
        "coordinates": [
          66.717005,
          44.169448,
          0
        ]
      },
      "properties": {
        "name": "Опора №4В35 ж/б пром.",
        "description": "no description",
        "styleUrl": "#icon-1899-0288D1",
        "label-scale": 0,
        "icon-scale": 1,
        "icon-offset": [
          32,
          64
        ],
        "icon-offset-units": [
          "pixels",
          "insetPixels"
        ],
        "icon": "images/icon-1.png"
      }
    },
    {
      "type": "Feature",
      "geometry": {
        "type": "Point",
        "coordinates": [
          66.717294,
          44.169374,
          0
        ]
      },
      "properties": {
        "name": "Опора №4В36 ж/б пром.",
        "description": "no description",
        "styleUrl": "#icon-1899-0288D1",
        "label-scale": 0,
        "icon-scale": 1,
        "icon-offset": [
          32,
          64
        ],
        "icon-offset-units": [
          "pixels",
          "insetPixels"
        ],
        "icon": "images/icon-1.png"
      }
    },
    {
      "type": "Feature",
      "geometry": {
        "type": "Point",
        "coordinates": [
          66.717606,
          44.169291,
          0
        ]
      },
      "properties": {
        "name": "Опора №4В37 ж/б пром.",
        "description": "no description",
        "styleUrl": "#icon-1899-0288D1",
        "label-scale": 0,
        "icon-scale": 1,
        "icon-offset": [
          32,
          64
        ],
        "icon-offset-units": [
          "pixels",
          "insetPixels"
        ],
        "icon": "images/icon-1.png"
      }
    },
    {
      "type": "Feature",
      "geometry": {
        "type": "Point",
        "coordinates": [
          66.717895,
          44.169214,
          0
        ]
      },
      "properties": {
        "name": "Опора №4В38 ж/б пром.",
        "description": "no description",
        "styleUrl": "#icon-1899-0288D1",
        "label-scale": 0,
        "icon-scale": 1,
        "icon-offset": [
          32,
          64
        ],
        "icon-offset-units": [
          "pixels",
          "insetPixels"
        ],
        "icon": "images/icon-1.png"
      }
    },
    {
      "type": "Feature",
      "geometry": {
        "type": "Point",
        "coordinates": [
          66.71817,
          44.169151,
          0
        ]
      },
      "properties": {
        "name": "Опора №4В39 ж/б пром.",
        "description": "no description",
        "styleUrl": "#icon-1899-0288D1",
        "label-scale": 0,
        "icon-scale": 1,
        "icon-offset": [
          32,
          64
        ],
        "icon-offset-units": [
          "pixels",
          "insetPixels"
        ],
        "icon": "images/icon-1.png"
      }
    },
    {
      "type": "Feature",
      "geometry": {
        "type": "Point",
        "coordinates": [
          66.71844,
          44.169084,
          0
        ]
      },
      "properties": {
        "name": "Опора №4В40 ж/б пром.",
        "description": "no description",
        "styleUrl": "#icon-1899-0288D1",
        "label-scale": 0,
        "icon-scale": 1,
        "icon-offset": [
          32,
          64
        ],
        "icon-offset-units": [
          "pixels",
          "insetPixels"
        ],
        "icon": "images/icon-1.png"
      }
    },
    {
      "type": "Feature",
      "geometry": {
        "type": "Point",
        "coordinates": [
          66.718733,
          44.169002,
          0
        ]
      },
      "properties": {
        "name": "Опора №4В41 ж/б пром.",
        "description": "no description",
        "styleUrl": "#icon-1899-0288D1",
        "label-scale": 0,
        "icon-scale": 1,
        "icon-offset": [
          32,
          64
        ],
        "icon-offset-units": [
          "pixels",
          "insetPixels"
        ],
        "icon": "images/icon-1.png"
      }
    },
    {
      "type": "Feature",
      "geometry": {
        "type": "Point",
        "coordinates": [
          66.719,
          44.168941,
          0
        ]
      },
      "properties": {
        "name": "Опора №4В42 ж/б анкер.",
        "description": "no description",
        "styleUrl": "#icon-1899-0288D1",
        "label-scale": 0,
        "icon-scale": 1,
        "icon-offset": [
          32,
          64
        ],
        "icon-offset-units": [
          "pixels",
          "insetPixels"
        ],
        "icon": "images/icon-1.png"
      }
    },
    {
      "type": "Feature",
      "properties": {},
      "geometry": {
        "type": "Polygon",
        "coordinates": [
          [
            [
              66.716896,
              44.1680591
            ],
            [
              66.71706585097633,
              44.1680591
            ],
            [
              66.71706585097633,
              44.1679678
            ],
            [
              66.716896,
              44.1679678
            ],
            [
              66.716896,
              44.1680591
            ]
          ]
        ]
      }
    }
  ]
}
