<?xml version="1.0" encoding="UTF-8"?>
<kml xmlns="http://www.opengis.net/kml/2.2">
  <Document>
    <name>КТПН-10/0,4 кВ №113</name>
    <description/>
    <Style id="icon-1739-0288D1-normal">
      <IconStyle>
        <color>ffd18802</color>
        <scale>1</scale>
        <Icon>
          <href>https://www.gstatic.com/mapspro/images/stock/503-wht-blank_maps.png</href>
        </Icon>
      </IconStyle>
      <LabelStyle>
        <scale>0</scale>
      </LabelStyle>
    </Style>
    <Style id="icon-1739-0288D1-highlight">
      <IconStyle>
        <color>ffd18802</color>
        <scale>1</scale>
        <Icon>
          <href>https://www.gstatic.com/mapspro/images/stock/503-wht-blank_maps.png</href>
        </Icon>
      </IconStyle>
      <LabelStyle>
        <scale>1</scale>
      </LabelStyle>
    </Style>
    <StyleMap id="icon-1739-0288D1">
      <Pair>
        <key>normal</key>
        <styleUrl>#icon-1739-0288D1-normal</styleUrl>
      </Pair>
      <Pair>
        <key>highlight</key>
        <styleUrl>#icon-1739-0288D1-highlight</styleUrl>
      </Pair>
    </StyleMap>
    <Style id="line-FFD600-1969-nodesc-normal">
      <LineStyle>
        <color>ff00d6ff</color>
        <width>1.969</width>
      </LineStyle>
      <BalloonStyle>
        <text><![CDATA[<h3>$[name]</h3>]]></text>
      </BalloonStyle>
    </Style>
    <Style id="line-FFD600-1969-nodesc-highlight">
      <LineStyle>
        <color>ff00d6ff</color>
        <width>2.9535</width>
      </LineStyle>
      <BalloonStyle>
        <text><![CDATA[<h3>$[name]</h3>]]></text>
      </BalloonStyle>
    </Style>
    <StyleMap id="line-FFD600-1969-nodesc">
      <Pair>
        <key>normal</key>
        <styleUrl>#line-FFD600-1969-nodesc-normal</styleUrl>
      </Pair>
      <Pair>
        <key>highlight</key>
        <styleUrl>#line-FFD600-1969-nodesc-highlight</styleUrl>
      </Pair>
    </StyleMap>
    <Style id="line-FFD600-2356-nodesc-normal">
      <LineStyle>
        <color>ff00d6ff</color>
        <width>2.356</width>
      </LineStyle>
      <BalloonStyle>
        <text><![CDATA[<h3>$[name]</h3>]]></text>
      </BalloonStyle>
    </Style>
    <Style id="line-FFD600-2356-nodesc-highlight">
      <LineStyle>
        <color>ff00d6ff</color>
        <width>3.534</width>
      </LineStyle>
      <BalloonStyle>
        <text><![CDATA[<h3>$[name]</h3>]]></text>
      </BalloonStyle>
    </Style>
    <StyleMap id="line-FFD600-2356-nodesc">
      <Pair>
        <key>normal</key>
        <styleUrl>#line-FFD600-2356-nodesc-normal</styleUrl>
      </Pair>
      <Pair>
        <key>highlight</key>
        <styleUrl>#line-FFD600-2356-nodesc-highlight</styleUrl>
      </Pair>
    </StyleMap>
    <Style id="line-FFD600-2550-nodesc-normal">
      <LineStyle>
        <color>ff00d6ff</color>
        <width>2.55</width>
      </LineStyle>
      <BalloonStyle>
        <text><![CDATA[<h3>$[name]</h3>]]></text>
      </BalloonStyle>
    </Style>
    <Style id="line-FFD600-2550-nodesc-highlight">
      <LineStyle>
        <color>ff00d6ff</color>
        <width>3.825</width>
      </LineStyle>
      <BalloonStyle>
        <text><![CDATA[<h3>$[name]</h3>]]></text>
      </BalloonStyle>
    </Style>
    <StyleMap id="line-FFD600-2550-nodesc">
      <Pair>
        <key>normal</key>
        <styleUrl>#line-FFD600-2550-nodesc-normal</styleUrl>
      </Pair>
      <Pair>
        <key>highlight</key>
        <styleUrl>#line-FFD600-2550-nodesc-highlight</styleUrl>
      </Pair>
    </StyleMap>
    <Style id="poly-000000-1200-77-normal">
      <LineStyle>
        <color>ff000000</color>
        <width>1.2</width>
      </LineStyle>
      <PolyStyle>
        <color>4d000000</color>
        <fill>1</fill>
        <outline>1</outline>
      </PolyStyle>
    </Style>
    <Style id="poly-000000-1200-77-highlight">
      <LineStyle>
        <color>ff000000</color>
        <width>1.8</width>
      </LineStyle>
      <PolyStyle>
        <color>4d000000</color>
        <fill>1</fill>
        <outline>1</outline>
      </PolyStyle>
    </Style>
    <StyleMap id="poly-000000-1200-77">
      <Pair>
        <key>normal</key>
        <styleUrl>#poly-000000-1200-77-normal</styleUrl>
      </Pair>
      <Pair>
        <key>highlight</key>
        <styleUrl>#poly-000000-1200-77-highlight</styleUrl>
      </Pair>
    </StyleMap>
    <Folder>
      <name>КТПН-10/0,4 кВ №113</name>
      <Placemark>
        <name>КТПН-10/0,4 кВ №113</name>
        <description><![CDATA[Ном.мощность: 400кВА<br>Год ввода:<br>Запитано от: ф.Аэропорт]]></description>
        <styleUrl>#poly-000000-1200-77</styleUrl>
        <Polygon>
          <outerBoundaryIs>
            <LinearRing>
              <tessellate>1</tessellate>
              <coordinates>
                66.7170417,44.1680521,0
                66.7170229,44.1680319,0
                66.7170498,44.1680213,0
                66.7170699,44.1680415,0
                66.7170417,44.1680521,0
              </coordinates>
            </LinearRing>
          </outerBoundaryIs>
        </Polygon>
      </Placemark>
    </Folder>
    <Folder>
      <name>ВЛ от КТПН-10/0,4 кВ №113</name>
      <Placemark>
        <name>от КТПН до оп. №4</name>
        <styleUrl>#line-FFD600-2356-nodesc</styleUrl>
        <LineString>
          <tessellate>1</tessellate>
          <coordinates>
            66.7170607,44.1680405,0
            66.717081,44.168059,0
            66.717227,44.168302,0
            66.71737,44.168543,0
            66.717444,44.168658,0
          </coordinates>
        </LineString>
      </Placemark>
      <Placemark>
        <name>от оп. №4 до оп. №4А7</name>
        <styleUrl>#line-FFD600-2550-nodesc</styleUrl>
        <LineString>
          <tessellate>1</tessellate>
          <coordinates>
            66.717444,44.168658,0
            66.7177,44.168589,0
            66.717954,44.168519,0
            66.718292,44.168439,0
            66.718576,44.168362,0
            66.718872,44.16828,0
            66.719181,44.168182,0
            66.719397,44.16812,0
          </coordinates>
        </LineString>
      </Placemark>
      <Placemark>
        <name>от оп. №4А2 до оп. №4А2-7</name>
        <styleUrl>#line-FFD600-1969-nodesc</styleUrl>
        <LineString>
          <tessellate>1</tessellate>
          <coordinates>
            66.717954,44.168519,0
            66.718057,44.168393,0
            66.718307,44.168321,0
            66.718576,44.168243,0
            66.718892,44.168165,0
            66.71919,44.168075,0
            66.719482,44.168,0
            66.719871,44.167893,0
          </coordinates>
        </LineString>
      </Placemark>
      <Placemark>
        <name>от оп. №4 до оп. №4В42</name>
        <styleUrl>#line-FFD600-1969-nodesc</styleUrl>
        <LineString>
          <tessellate>1</tessellate>
          <coordinates>
            66.717444,44.168658,0
            66.717213,44.168711,0
            66.716949,44.168776,0
            66.716693,44.168834,0
            66.716437,44.168903,0
            66.716195,44.168969,0
            66.715934,44.169032,0
            66.715643,44.169107,0
            66.715378,44.169181,0
            66.71509,44.16926,0
            66.71482,44.169324,0
            66.714282,44.169463,0
            66.713944,44.169557,0
            66.713709,44.169623,0
            66.713401,44.169706,0
            66.713076,44.169792,0
            66.712685,44.169893,0
            66.712395,44.169975,0
            66.712495,44.170188,0
            66.712588,44.170366,0
            66.712696,44.170577,0
            66.712967,44.170508,0
            66.713265,44.170439,0
            66.713556,44.170352,0
            66.713842,44.170278,0
            66.714137,44.170202,0
            66.71441,44.170127,0
            66.714714,44.170052,0
            66.715016,44.169968,0
            66.71532,44.169903,0
            66.715586,44.169832,0
            66.715907,44.169732,0
            66.716186,44.169661,0
            66.716504,44.169574,0
            66.716741,44.169518,0
            66.717005,44.169448,0
            66.717294,44.169374,0
            66.717606,44.169291,0
            66.717895,44.169214,0
            66.71817,44.169151,0
            66.71844,44.169084,0
            66.718733,44.169002,0
            66.719,44.168941,0
          </coordinates>
        </LineString>
      </Placemark>
    </Folder>
    <Folder>
      <name>Опоры ВЛ-0,4 кВ</name>
      <Placemark>
        <name>Опора №1 ж/б пром.</name>
        <description>no description</description>
        <styleUrl>#icon-1739-0288D1</styleUrl>
        <Point>
          <coordinates>
            66.717081,44.168059,0
          </coordinates>
        </Point>
      </Placemark>
      <Placemark>
        <name>Опора №2 д/п пром.</name>
        <description>no description</description>
        <styleUrl>#icon-1739-0288D1</styleUrl>
        <Point>
          <coordinates>
            66.717227,44.168302,0
          </coordinates>
        </Point>
      </Placemark>
      <Placemark>
        <name>Опора №3 д/п пром.</name>
        <description>no description</description>
        <styleUrl>#icon-1739-0288D1</styleUrl>
        <Point>
          <coordinates>
            66.71737,44.168543,0
          </coordinates>
        </Point>
      </Placemark>
      <Placemark>
        <name>Опора №4 ж/б пром.</name>
        <description>no description</description>
        <styleUrl>#icon-1739-0288D1</styleUrl>
        <Point>
          <coordinates>
            66.717444,44.168658,0
          </coordinates>
        </Point>
      </Placemark>
      <Placemark>
        <name>Опора №4А1 ж/б пром. 1-ввод</name>
        <description>no description</description>
        <styleUrl>#icon-1739-0288D1</styleUrl>
        <Point>
          <coordinates>
            66.7177,44.168589,0
          </coordinates>
        </Point>
      </Placemark>
      <Placemark>
        <name>Опора №4А2 ж/б анкер. 1-ввод</name>
        <description>no description</description>
        <styleUrl>#icon-1739-0288D1</styleUrl>
        <Point>
          <coordinates>
            66.717954,44.168519,0
          </coordinates>
        </Point>
      </Placemark>
      <Placemark>
        <name>Опора №4А3 ж/б пром. 2-ввод</name>
        <description>no description</description>
        <styleUrl>#icon-1739-0288D1</styleUrl>
        <Point>
          <coordinates>
            66.718292,44.168439,0
          </coordinates>
        </Point>
      </Placemark>
      <Placemark>
        <name>Опора №4А2-1 ж/б анкер. 1-ввод</name>
        <description>no description</description>
        <styleUrl>#icon-1739-0288D1</styleUrl>
        <Point>
          <coordinates>
            66.718057,44.168393,0
          </coordinates>
        </Point>
      </Placemark>
      <Placemark>
        <name>Опора №4А2-2 ж/б пром. 1-ввод</name>
        <description>no description</description>
        <styleUrl>#icon-1739-0288D1</styleUrl>
        <Point>
          <coordinates>
            66.718307,44.168321,0
          </coordinates>
        </Point>
      </Placemark>
      <Placemark>
        <name>Опора №4А2-3 ж/б пром.</name>
        <description>no description</description>
        <styleUrl>#icon-1739-0288D1</styleUrl>
        <Point>
          <coordinates>
            66.718576,44.168243,0
          </coordinates>
        </Point>
      </Placemark>
      <Placemark>
        <name>Опора №4А4 ж/б пром. 1-ввод</name>
        <description>no description</description>
        <styleUrl>#icon-1739-0288D1</styleUrl>
        <Point>
          <coordinates>
            66.718576,44.168362,0
          </coordinates>
        </Point>
      </Placemark>
      <Placemark>
        <name>Опора №4А2-4 ж/б пром. 1-ввод</name>
        <description>no description</description>
        <styleUrl>#icon-1739-0288D1</styleUrl>
        <Point>
          <coordinates>
            66.718892,44.168165,0
          </coordinates>
        </Point>
      </Placemark>
      <Placemark>
        <name>Опора №4А5 ж/б пром.</name>
        <description>no description</description>
        <styleUrl>#icon-1739-0288D1</styleUrl>
        <Point>
          <coordinates>
            66.718872,44.16828,0
          </coordinates>
        </Point>
      </Placemark>
      <Placemark>
        <name>Опора №4А6 ж/б пром. 1-ввод</name>
        <description>no description</description>
        <styleUrl>#icon-1739-0288D1</styleUrl>
        <Point>
          <coordinates>
            66.719181,44.168182,0
          </coordinates>
        </Point>
      </Placemark>
      <Placemark>
        <name>Опора №4А2-5 ж/б пром. 1-ввод</name>
        <description>no description</description>
        <styleUrl>#icon-1739-0288D1</styleUrl>
        <Point>
          <coordinates>
            66.71919,44.168075,0
          </coordinates>
        </Point>
      </Placemark>
      <Placemark>
        <name>Опора №4А7 ж/б анкер. 1-ввод</name>
        <description>no description</description>
        <styleUrl>#icon-1739-0288D1</styleUrl>
        <Point>
          <coordinates>
            66.719397,44.16812,0
          </coordinates>
        </Point>
      </Placemark>
      <Placemark>
        <name>Опора №4А2-6 ж/б пром. 1-ввод</name>
        <description>no description</description>
        <styleUrl>#icon-1739-0288D1</styleUrl>
        <Point>
          <coordinates>
            66.719482,44.168,0
          </coordinates>
        </Point>
      </Placemark>
      <Placemark>
        <name>Опора №4А2-7 ж/б анкер. 1-ввод</name>
        <description>no description</description>
        <styleUrl>#icon-1739-0288D1</styleUrl>
        <Point>
          <coordinates>
            66.719871,44.167893,0
          </coordinates>
        </Point>
      </Placemark>
      <Placemark>
        <name>Опора №4В1 ж/б пром. </name>
        <description>no description</description>
        <styleUrl>#icon-1739-0288D1</styleUrl>
        <Point>
          <coordinates>
            66.717213,44.168711,0
          </coordinates>
        </Point>
      </Placemark>
      <Placemark>
        <name>Опора №4В2 ж/б пром. </name>
        <description>no description</description>
        <styleUrl>#icon-1739-0288D1</styleUrl>
        <Point>
          <coordinates>
            66.716949,44.168776,0
          </coordinates>
        </Point>
      </Placemark>
      <Placemark>
        <name>Опора №4В3 ж/б пром. </name>
        <description>no description</description>
        <styleUrl>#icon-1739-0288D1</styleUrl>
        <Point>
          <coordinates>
            66.716693,44.168834,0
          </coordinates>
        </Point>
      </Placemark>
      <Placemark>
        <name>Опора №4В4 ж/б пром. </name>
        <description>no description</description>
        <styleUrl>#icon-1739-0288D1</styleUrl>
        <Point>
          <coordinates>
            66.716437,44.168903,0
          </coordinates>
        </Point>
      </Placemark>
      <Placemark>
        <name>Опора №4В5 ж/б пром. </name>
        <description>no description</description>
        <styleUrl>#icon-1739-0288D1</styleUrl>
        <Point>
          <coordinates>
            66.716195,44.168969,0
          </coordinates>
        </Point>
      </Placemark>
      <Placemark>
        <name>Опора №4В6 ж/б пром. </name>
        <description>no description</description>
        <styleUrl>#icon-1739-0288D1</styleUrl>
        <Point>
          <coordinates>
            66.715934,44.169032,0
          </coordinates>
        </Point>
      </Placemark>
      <Placemark>
        <name>Опора №4В7 ж/б пром. </name>
        <description>no description</description>
        <styleUrl>#icon-1739-0288D1</styleUrl>
        <Point>
          <coordinates>
            66.715643,44.169107,0
          </coordinates>
        </Point>
      </Placemark>
      <Placemark>
        <name>Опора №4В8 ж/б пром. </name>
        <description>no description</description>
        <styleUrl>#icon-1739-0288D1</styleUrl>
        <Point>
          <coordinates>
            66.715378,44.169181,0
          </coordinates>
        </Point>
      </Placemark>
      <Placemark>
        <name>Опора №4В9 ж/б пром. </name>
        <description>no description</description>
        <styleUrl>#icon-1739-0288D1</styleUrl>
        <Point>
          <coordinates>
            66.71509,44.16926,0
          </coordinates>
        </Point>
      </Placemark>
      <Placemark>
        <name>Опора №4В10 ж/б анкер.</name>
        <description>no description</description>
        <styleUrl>#icon-1739-0288D1</styleUrl>
        <Point>
          <coordinates>
            66.71482,44.169324,0
          </coordinates>
        </Point>
      </Placemark>
      <Placemark>
        <name>Опора №4В11 ж/б пром. </name>
        <description>no description</description>
        <styleUrl>#icon-1739-0288D1</styleUrl>
        <Point>
          <coordinates>
            66.714282,44.169463,0
          </coordinates>
        </Point>
      </Placemark>
      <Placemark>
        <name>Опора №4В12 ж/б пром. </name>
        <description>no description</description>
        <styleUrl>#icon-1739-0288D1</styleUrl>
        <Point>
          <coordinates>
            66.713944,44.169557,0
          </coordinates>
        </Point>
      </Placemark>
      <Placemark>
        <name>Опора №4В13 ж/б пром. </name>
        <description>no description</description>
        <styleUrl>#icon-1739-0288D1</styleUrl>
        <Point>
          <coordinates>
            66.713709,44.169623,0
          </coordinates>
        </Point>
      </Placemark>
      <Placemark>
        <name>Опора №4В14 ж/б пром. </name>
        <description>no description</description>
        <styleUrl>#icon-1739-0288D1</styleUrl>
        <Point>
          <coordinates>
            66.713401,44.169706,0
          </coordinates>
        </Point>
      </Placemark>
      <Placemark>
        <name>Опора №4В15 ж/б пром. </name>
        <description>no description</description>
        <styleUrl>#icon-1739-0288D1</styleUrl>
        <Point>
          <coordinates>
            66.713076,44.169792,0
          </coordinates>
        </Point>
      </Placemark>
      <Placemark>
        <name>Опора №4В16 ж/б пром. </name>
        <description>no description</description>
        <styleUrl>#icon-1739-0288D1</styleUrl>
        <Point>
          <coordinates>
            66.712685,44.169893,0
          </coordinates>
        </Point>
      </Placemark>
      <Placemark>
        <name>Опора №4В17 анкер</name>
        <description>no description</description>
        <styleUrl>#icon-1739-0288D1</styleUrl>
        <Point>
          <coordinates>
            66.712395,44.169975,0
          </coordinates>
        </Point>
      </Placemark>
      <Placemark>
        <name>Опора №4В18 ж/б пром. </name>
        <description>no description</description>
        <styleUrl>#icon-1739-0288D1</styleUrl>
        <Point>
          <coordinates>
            66.712495,44.170188,0
          </coordinates>
        </Point>
      </Placemark>
      <Placemark>
        <name>Опора №4В19 ж/б пром. </name>
        <description>no description</description>
        <styleUrl>#icon-1739-0288D1</styleUrl>
        <Point>
          <coordinates>
            66.712588,44.170366,0
          </coordinates>
        </Point>
      </Placemark>
      <Placemark>
        <name>Опора №4В20 анкер</name>
        <description>no description</description>
        <styleUrl>#icon-1739-0288D1</styleUrl>
        <Point>
          <coordinates>
            66.712696,44.170577,0
          </coordinates>
        </Point>
      </Placemark>
      <Placemark>
        <name>Опора №4В21 ж/б пром. </name>
        <description>no description</description>
        <styleUrl>#icon-1739-0288D1</styleUrl>
        <Point>
          <coordinates>
            66.712967,44.170508,0
          </coordinates>
        </Point>
      </Placemark>
      <Placemark>
        <name>Опора №4В22 ж/б пром. </name>
        <description>no description</description>
        <styleUrl>#icon-1739-0288D1</styleUrl>
        <Point>
          <coordinates>
            66.713265,44.170439,0
          </coordinates>
        </Point>
      </Placemark>
      <Placemark>
        <name>Опора №4В23 ж/б пром. </name>
        <description>no description</description>
        <styleUrl>#icon-1739-0288D1</styleUrl>
        <Point>
          <coordinates>
            66.713556,44.170352,0
          </coordinates>
        </Point>
      </Placemark>
      <Placemark>
        <name>Опора №4В24 ж/б пром. </name>
        <description>no description</description>
        <styleUrl>#icon-1739-0288D1</styleUrl>
        <Point>
          <coordinates>
            66.713842,44.170278,0
          </coordinates>
        </Point>
      </Placemark>
      <Placemark>
        <name>Опора №4В25 ж/б пром. </name>
        <description>no description</description>
        <styleUrl>#icon-1739-0288D1</styleUrl>
        <Point>
          <coordinates>
            66.714137,44.170202,0
          </coordinates>
        </Point>
      </Placemark>
      <Placemark>
        <name>Опора №4В26 ж/б пром. </name>
        <description>no description</description>
        <styleUrl>#icon-1739-0288D1</styleUrl>
        <Point>
          <coordinates>
            66.71441,44.170127,0
          </coordinates>
        </Point>
      </Placemark>
      <Placemark>
        <name>Опора №4В27 ж/б пром. </name>
        <description>no description</description>
        <styleUrl>#icon-1739-0288D1</styleUrl>
        <Point>
          <coordinates>
            66.714714,44.170052,0
          </coordinates>
        </Point>
      </Placemark>
      <Placemark>
        <name>Опора №4В28 ж/б анкер.</name>
        <description>no description</description>
        <styleUrl>#icon-1739-0288D1</styleUrl>
        <Point>
          <coordinates>
            66.715016,44.169968,0
          </coordinates>
        </Point>
      </Placemark>
      <Placemark>
        <name>Опора №4В29 ж/б пром. </name>
        <description>no description</description>
        <styleUrl>#icon-1739-0288D1</styleUrl>
        <Point>
          <coordinates>
            66.71532,44.169903,0
          </coordinates>
        </Point>
      </Placemark>
      <Placemark>
        <name>Опора №4В30 ж/б пром. </name>
        <description>no description</description>
        <styleUrl>#icon-1739-0288D1</styleUrl>
        <Point>
          <coordinates>
            66.715586,44.169832,0
          </coordinates>
        </Point>
      </Placemark>
      <Placemark>
        <name>Опора №4В31 ж/б пром. </name>
        <description>no description</description>
        <styleUrl>#icon-1739-0288D1</styleUrl>
        <Point>
          <coordinates>
            66.715907,44.169732,0
          </coordinates>
        </Point>
      </Placemark>
      <Placemark>
        <name>Опора №4В32 ж/б пром. </name>
        <description>no description</description>
        <styleUrl>#icon-1739-0288D1</styleUrl>
        <Point>
          <coordinates>
            66.716186,44.169661,0
          </coordinates>
        </Point>
      </Placemark>
      <Placemark>
        <name>Опора №4В33 ж/б пром. </name>
        <description>no description</description>
        <styleUrl>#icon-1739-0288D1</styleUrl>
        <Point>
          <coordinates>
            66.716504,44.169574,0
          </coordinates>
        </Point>
      </Placemark>
      <Placemark>
        <name>Опора №4В34 ж/б пром. </name>
        <description>no description</description>
        <styleUrl>#icon-1739-0288D1</styleUrl>
        <Point>
          <coordinates>
            66.716741,44.169518,0
          </coordinates>
        </Point>
      </Placemark>
      <Placemark>
        <name>Опора №4В35 ж/б пром. </name>
        <description>no description</description>
        <styleUrl>#icon-1739-0288D1</styleUrl>
        <Point>
          <coordinates>
            66.717005,44.169448,0
          </coordinates>
        </Point>
      </Placemark>
      <Placemark>
        <name>Опора №4В36 ж/б пром. </name>
        <description>no description</description>
        <styleUrl>#icon-1739-0288D1</styleUrl>
        <Point>
          <coordinates>
            66.717294,44.169374,0
          </coordinates>
        </Point>
      </Placemark>
      <Placemark>
        <name>Опора №4В37 ж/б пром. </name>
        <description>no description</description>
        <styleUrl>#icon-1739-0288D1</styleUrl>
        <Point>
          <coordinates>
            66.717606,44.169291,0
          </coordinates>
        </Point>
      </Placemark>
      <Placemark>
        <name>Опора №4В38 ж/б пром. </name>
        <description>no description</description>
        <styleUrl>#icon-1739-0288D1</styleUrl>
        <Point>
          <coordinates>
            66.717895,44.169214,0
          </coordinates>
        </Point>
      </Placemark>
      <Placemark>
        <name>Опора №4В39 ж/б пром. </name>
        <description>no description</description>
        <styleUrl>#icon-1739-0288D1</styleUrl>
        <Point>
          <coordinates>
            66.71817,44.169151,0
          </coordinates>
        </Point>
      </Placemark>
      <Placemark>
        <name>Опора №4В40 ж/б пром. </name>
        <description>no description</description>
        <styleUrl>#icon-1739-0288D1</styleUrl>
        <Point>
          <coordinates>
            66.71844,44.169084,0
          </coordinates>
        </Point>
      </Placemark>
      <Placemark>
        <name>Опора №4В41 ж/б пром. </name>
        <description>no description</description>
        <styleUrl>#icon-1739-0288D1</styleUrl>
        <Point>
          <coordinates>
            66.718733,44.169002,0
          </coordinates>
        </Point>
      </Placemark>
      <Placemark>
        <name>Опора №4В42 ж/б анкер.</name>
        <description>no description</description>
        <styleUrl>#icon-1739-0288D1</styleUrl>
        <Point>
          <coordinates>
            66.719,44.168941,0
          </coordinates>
        </Point>
      </Placemark>
    </Folder>
  </Document>
</kml>
